[{"OBJECT_NAME":"ONEWEB-0495","OBJECT_ID":"2022-138C","EPOCH":"2026-03-04T06:47:40.654752","MEAN_MOTION":13.19727284,"ECCENTRICITY":0.000165,"INCLINATION":87.9238,"RA_OF_ASC_NODE":325.8705,"ARG_OF_PERICENTER":104.8209,"MEAN_ANOMALY":255.3106,"EPHEMERIS_TYPE":0,"CLASSIFICATION_TYPE":"U","NORAD_CAT_ID":54115,"ELEMENT_SET_NO":999,"REV_AT_EPOCH":16298,"BSTAR":0.00027327,"MEAN_MOTION_DOT":1.22e-6,"MEAN_MOTION_DDOT":0},{"OBJECT_NAME":"ONEWEB-0497","OBJECT_ID":"2022-138D","EPOCH":"2026-03-04T05:16:42.122208","MEAN_MOTION":13.19726139,"ECCENTRICITY":0.0001703,"INCLINATION":87.9239,"RA_OF_ASC_NODE":325.8738,"ARG_OF_PERICENTER":82.8395,"MEAN_ANOMALY":277.2931,"EPHEMERIS_TYPE":0,"CLASSIFICATION_TYPE":"U","NORAD_CAT_ID":54116,"ELEMENT_SET_NO":999,"REV_AT_EPOCH":16296,"BSTAR":0.00019922,"MEAN_MOTION_DOT":9.3e-7,"MEAN_MOTION_DDOT":0},{"OBJECT_NAME":"ONEWEB-0499","OBJECT_ID":"2022-138E","EPOCH":"2026-03-04T06:41:59.836128","MEAN_MOTION":13.19725504,"ECCENTRICITY":0.0001478,"INCLINATION":87.9238,"RA_OF_ASC_NODE":325.8718,"ARG_OF_PERICENTER":80.5966,"MEAN_ANOMALY":279.5334,"EPHEMERIS_TYPE":0,"CLASSIFICATION_TYPE":"U","NORAD_CAT_ID":54117,"ELEMENT_SET_NO":999,"REV_AT_EPOCH":16298,"BSTAR":0.00019033,"MEAN_MOTION_DOT":8.9e-7,"MEAN_MOTION_DDOT":0},{"OBJECT_NAME":"ONEWEB-0500","OBJECT_ID":"2022-138F","EPOCH":"2026-03-04T06:45:24.325056","MEAN_MOTION":13.19726597,"ECCENTRICITY":0.0001795,"INCLINATION":87.924,"RA_OF_ASC_NODE":325.8611,"ARG_OF_PERICENTER":79.8547,"MEAN_ANOMALY":280.2788,"EPHEMERIS_TYPE":0,"CLASSIFICATION_TYPE":"U","NORAD_CAT_ID":54118,"ELEMENT_SET_NO":999,"REV_AT_EPOCH":16299,"BSTAR":0.00013604,"MEAN_MOTION_DOT":6.7e-7,"MEAN_MOTION_DDOT":0},{"OBJECT_NAME":"ONEWEB-0501","OBJECT_ID":"2022-138G","EPOCH":"2026-03-04T05:39:27.526464","MEAN_MOTION":13.19725868,"ECCENTRICITY":0.0001593,"INCLINATION":87.9237,"RA_OF_ASC_NODE":325.8713,"ARG_OF_PERICENTER":91.919,"MEAN_ANOMALY":268.2125,"EPHEMERIS_TYPE":0,"CLASSIFICATION_TYPE":"U","NORAD_CAT_ID":54119,"ELEMENT_SET_NO":999,"REV_AT_EPOCH":16296,"BSTAR":0.00018549,"MEAN_MOTION_DOT":8.7e-7,"MEAN_MOTION_DDOT":0},{"OBJECT_NAME":"ONEWEB-0502","OBJECT_ID":"2022-138H","EPOCH":"2026-03-04T05:18:58.660128","MEAN_MOTION":13.19726116,"ECCENTRICITY":0.0001464,"INCLINATION":87.9246,"RA_OF_ASC_NODE":325.8583,"ARG_OF_PERICENTER":86.6499,"MEAN_ANOMALY":273.4801,"EPHEMERIS_TYPE":0,"CLASSIFICATION_TYPE":"U","NORAD_CAT_ID":54120,"ELEMENT_SET_NO":999,"REV_AT_EPOCH":16298,"BSTAR":8.3357e-5,"MEAN_MOTION_DOT":4.6e-7,"MEAN_MOTION_DDOT":0},{"OBJECT_NAME":"ONEWEB-0503","OBJECT_ID":"2022-138J","EPOCH":"2026-03-04T06:52:13.969920","MEAN_MOTION":13.19726022,"ECCENTRICITY":0.0001486,"INCLINATION":87.9247,"RA_OF_ASC_NODE":325.8492,"ARG_OF_PERICENTER":73.5881,"MEAN_ANOMALY":286.5415,"EPHEMERIS_TYPE":0,"CLASSIFICATION_TYPE":"U","NORAD_CAT_ID":54121,"ELEMENT_SET_NO":999,"REV_AT_EPOCH":16298,"BSTAR":0.00032875,"MEAN_MOTION_DOT":1.45e-6,"MEAN_MOTION_DDOT":0},{"OBJECT_NAME":"ONEWEB-0504","OBJECT_ID":"2022-138K","EPOCH":"2026-03-04T06:34:02.667072","MEAN_MOTION":13.19726299,"ECCENTRICITY":0.0001493,"INCLINATION":87.9242,"RA_OF_ASC_NODE":325.8625,"ARG_OF_PERICENTER":85.1505,"MEAN_ANOMALY":274.9799,"EPHEMERIS_TYPE":0,"CLASSIFICATION_TYPE":"U","NORAD_CAT_ID":54122,"ELEMENT_SET_NO":999,"REV_AT_EPOCH":16299,"BSTAR":0.00018058,"MEAN_MOTION_DOT":8.5e-7,"MEAN_MOTION_DDOT":0},{"OBJECT_NAME":"ONEWEB-0505","OBJECT_ID":"2022-138L","EPOCH":"2026-03-04T06:29:29.433120","MEAN_MOTION":13.19725834,"ECCENTRICITY":0.0001466,"INCLINATION":87.9246,"RA_OF_ASC_NODE":325.8592,"ARG_OF_PERICENTER":96.6602,"MEAN_ANOMALY":263.4697,"EPHEMERIS_TYPE":0,"CLASSIFICATION_TYPE":"U","NORAD_CAT_ID":54123,"ELEMENT_SET_NO":999,"REV_AT_EPOCH":16297,"BSTAR":0.00011748,"MEAN_MOTION_DOT":6.0e-7,"MEAN_MOTION_DDOT":0},{"OBJECT_NAME":"ONEWEB-0506","OBJECT_ID":"2022-138M","EPOCH":"2026-03-04T05:53:06.030816","MEAN_MOTION":13.197267,"ECCENTRICITY":0.0001558,"INCLINATION":87.9246,"RA_OF_ASC_NODE":325.8617,"ARG_OF_PERICENTER":89.6664,"MEAN_ANOMALY":270.4647,"EPHEMERIS_TYPE":0,"CLASSIFICATION_TYPE":"U","NORAD_CAT_ID":54124,"ELEMENT_SET_NO":999,"REV_AT_EPOCH":16296,"BSTAR":0.00013582,"MEAN_MOTION_DOT":6.7e-7,"MEAN_MOTION_DDOT":0},{"OBJECT_NAME":"ONEWEB-0507","OBJECT_ID":"2022-138N","EPOCH":"2026-03-04T06:22:39.486720","MEAN_MOTION":13.19726801,"ECCENTRICITY":0.0001659,"INCLINATION":87.9235,"RA_OF_ASC_NODE":325.8798,"ARG_OF_PERICENTER":86.7646,"MEAN_ANOMALY":273.3676,"EPHEMERIS_TYPE":0,"CLASSIFICATION_TYPE":"U","NORAD_CAT_ID":54125,"ELEMENT_SET_NO":999,"REV_AT_EPOCH":16301,"BSTAR":0.00011563,"MEAN_MOTION_DOT":5.9e-7,"MEAN_MOTION_DDOT":0},{"OBJECT_NAME":"ONEWEB-0508","OBJECT_ID":"2022-138P","EPOCH":"2026-03-04T06:18:06.066144","MEAN_MOTION":13.19724189,"ECCENTRICITY":0.000178,"INCLINATION":87.9241,"RA_OF_ASC_NODE":325.8787,"ARG_OF_PERICENTER":94.1725,"MEAN_ANOMALY":265.9611,"EPHEMERIS_TYPE":0,"CLASSIFICATION_TYPE":"U","NORAD_CAT_ID":54126,"ELEMENT_SET_NO":999,"REV_AT_EPOCH":16299,"BSTAR":0.00010516,"MEAN_MOTION_DOT":5.5e-7,"MEAN_MOTION_DDOT":0},{"OBJECT_NAME":"ONEWEB-0509","OBJECT_ID":"2022-138Q","EPOCH":"2026-03-04T05:41:42.861696","MEAN_MOTION":13.19724039,"ECCENTRICITY":0.0001651,"INCLINATION":87.9247,"RA_OF_ASC_NODE":325.8632,"ARG_OF_PERICENTER":83.3955,"MEAN_ANOMALY":276.7366,"EPHEMERIS_TYPE":0,"CLASSIFICATION_TYPE":"U","NORAD_CAT_ID":54127,"ELEMENT_SET_NO":999,"REV_AT_EPOCH":16296,"BSTAR":0.0001962,"MEAN_MOTION_DOT":9.1e-7,"MEAN_MOTION_DDOT":0},{"OBJECT_NAME":"ONEWEB-0510","OBJECT_ID":"2022-138R","EPOCH":"2026-03-04T03:10:53.352480","MEAN_MOTION":13.207691,"ECCENTRICITY":0.0001767,"INCLINATION":87.9179,"RA_OF_ASC_NODE":295.4108,"ARG_OF_PERICENTER":67.9009,"MEAN_ANOMALY":292.2311,"EPHEMERIS_TYPE":0,"CLASSIFICATION_TYPE":"U","NORAD_CAT_ID":54128,"ELEMENT_SET_NO":999,"REV_AT_EPOCH":16541,"BSTAR":0.0005446,"MEAN_MOTION_DOT":2.34e-6,"MEAN_MOTION_DDOT":0},{"OBJECT_NAME":"ONEWEB-0511","OBJECT_ID":"2022-138S","EPOCH":"2026-03-04T05:37:10.242048","MEAN_MOTION":13.19726479,"ECCENTRICITY":0.0001445,"INCLINATION":87.9247,"RA_OF_ASC_NODE":325.8683,"ARG_OF_PERICENTER":74.0489,"MEAN_ANOMALY":286.0803,"EPHEMERIS_TYPE":0,"CLASSIFICATION_TYPE":"U","NORAD_CAT_ID":54129,"ELEMENT_SET_NO":999,"REV_AT_EPOCH":16299,"BSTAR":0.00012998,"MEAN_MOTION_DOT":6.5e-7,"MEAN_MOTION_DDOT":0},{"OBJECT_NAME":"ONEWEB-0512","OBJECT_ID":"2022-138T","EPOCH":"2026-03-04T05:25:46.902720","MEAN_MOTION":13.1972558,"ECCENTRICITY":0.0001229,"INCLINATION":87.9238,"RA_OF_ASC_NODE":325.8842,"ARG_OF_PERICENTER":90.8575,"MEAN_ANOMALY":269.2699,"EPHEMERIS_TYPE":0,"CLASSIFICATION_TYPE":"U","NORAD_CAT_ID":54130,"ELEMENT_SET_NO":999,"REV_AT_EPOCH":16296,"BSTAR":-0.0003051,"MEAN_MOTION_DOT":-1.09e-6,"MEAN_MOTION_DDOT":0},{"OBJECT_NAME":"ONEWEB-0513","OBJECT_ID":"2022-138U","EPOCH":"2026-03-04T06:35:40.304256","MEAN_MOTION":13.20262225,"ECCENTRICITY":9.9e-5,"INCLINATION":87.925,"RA_OF_ASC_NODE":325.8299,"ARG_OF_PERICENTER":108.5363,"MEAN_ANOMALY":251.5877,"EPHEMERIS_TYPE":0,"CLASSIFICATION_TYPE":"U","NORAD_CAT_ID":54131,"ELEMENT_SET_NO":999,"REV_AT_EPOCH":16287,"BSTAR":6.0042e-5,"MEAN_MOTION_DOT":3.7e-7,"MEAN_MOTION_DDOT":0}]
