ONEWEB-0495             
1 54115U 22138C   26063.28310943  .00000122  00000+0  27327-3 0  9997
2 54115  87.9238 325.8705 0001650 104.8209 255.3106 13.19727284162983
ONEWEB-0497             
1 54116U 22138D   26063.21993197  .00000093  00000+0  19922-3 0  9998
2 54116  87.9239 325.8738 0001703  82.8395 277.2931 13.19726139162966
ONEWEB-0499             
1 54117U 22138E   26063.27916477  .00000089  00000+0  19033-3 0  9999
2 54117  87.9238 325.8718 0001478  80.5966 279.5334 13.19725504162981
ONEWEB-0500             
1 54118U 22138F   26063.28153154  .00000067  00000+0  13604-3 0  9990
2 54118  87.9240 325.8611 0001795  79.8547 280.2788 13.19726597162991
ONEWEB-0501             
1 54119U 22138G   26063.23573526  .00000087  00000+0  18549-3 0  9990
2 54119  87.9237 325.8713 0001593  91.9190 268.2125 13.19725868162964
ONEWEB-0502             
1 54120U 22138H   26063.22151227  .00000046  00000+0  83357-4 0  9996
2 54120  87.9246 325.8583 0001464  86.6499 273.4801 13.19726116162989
ONEWEB-0503             
1 54121U 22138J   26063.28627280  .00000145  00000+0  32875-3 0  9998
2 54121  87.9247 325.8492 0001486  73.5881 286.5415 13.19726022162986
ONEWEB-0504             
1 54122U 22138K   26063.27364198  .00000085  00000+0  18058-3 0  9994
2 54122  87.9242 325.8625 0001493  85.1505 274.9799 13.19726299162993
ONEWEB-0505             
1 54123U 22138L   26063.27047955  .00000060  00000+0  11748-3 0  9996
2 54123  87.9246 325.8592 0001466  96.6602 263.4697 13.19725834162978
ONEWEB-0506             
1 54124U 22138M   26063.24520869  .00000067  00000+0  13582-3 0  9999
2 54124  87.9246 325.8617 0001558  89.6664 270.4647 13.19726700162964
ONEWEB-0507             
1 54125U 22138N   26063.26573480  .00000059  00000+0  11563-3 0  9997
2 54125  87.9235 325.8798 0001659  86.7646 273.3676 13.19726801163016
ONEWEB-0508             
1 54126U 22138P   26063.26257021  .00000055  00000+0  10516-3 0  9991
2 54126  87.9241 325.8787 0001780  94.1725 265.9611 13.19724189162997
ONEWEB-0509             
1 54127U 22138Q   26063.23730164  .00000091  00000+0  19620-3 0  9998
2 54127  87.9247 325.8632 0001651  83.3955 276.7366 13.19724039162963
ONEWEB-0510             
1 54128U 22138R   26063.13256195  .00000234  00000+0  54460-3 0  9995
2 54128  87.9179 295.4108 0001767  67.9009 292.2311 13.20769100165410
ONEWEB-0511             
1 54129U 22138S   26063.23414632  .00000065  00000+0  12998-3 0  9991
2 54129  87.9247 325.8683 0001445  74.0489 286.0803 13.19726479162994
ONEWEB-0512             
1 54130U 22138T   26063.22623730 -.00000109  00000+0 -30510-3 0  9994
2 54130  87.9238 325.8842 0001229  90.8575 269.2699 13.19725580162960
ONEWEB-0513             
1 54131U 22138U   26063.27477204  .00000037  00000+0  60042-4 0  9995
2 54131  87.9250 325.8299 0000990 108.5363 251.5877 13.20262225162873
